{
  "type": "FeatureCollection",
  "features": [
    {
      "type": "Feature",
      "properties": {
        "norad_id": 66767,
        "name": "TRANSPORTER-15 DF",
        "group": "last-30-days",
        "lat": -14.959381331733358,
        "lon": 70.0969975842277,
        "alt_km": 516.1185546309171,
        "timestamp": "2025-12-22T11:33:19.154994+00:00",
        "meta_object_name": "TRANSPORTER-15 DF",
        "meta_object_id": "2025-276DF",
        "meta_epoch": "2025-12-22T03:42:46.836000",
        "meta_mean_motion": 15.18297802,
        "meta_eccentricity": 0.0002057,
        "meta_inclination": 97.4374,
        "meta_ra_of_asc_node": 67.7755,
        "meta_arg_of_pericenter": 90.1675,
        "meta_mean_anomaly": 269.9795,
        "meta_ephemeris_type": 0,
        "meta_classification_type": "U",
        "meta_norad_cat_id": 66767,
        "meta_element_set_no": 999,
        "meta_rev_at_epoch": 355,
        "meta_bstar": 0.00036834,
        "meta_mean_motion_dot": 7.489e-05,
        "meta_mean_motion_ddot": 0,
        "tle_line1": "1 66767U 25276DF  25356.15470875  .00007489  00000+0  36834-3 0  9996",
        "tle_line2": "2 66767  97.4374  67.7755 0002057  90.1675 269.9795 15.18297802  3550"
      },
      "geometry": {
        "type": "Point",
        "coordinates": [
          70.0969975842277,
          -14.959381331733358
        ]
      }
    },
    {
      "type": "Feature",
      "properties": {
        "norad_id": 66768,
        "name": "TRANSPORTER-15 DG",
        "group": "last-30-days",
        "lat": -3.8067729350209945,
        "lon": 68.59576766581058,
        "alt_km": 513.6256981145334,
        "timestamp": "2025-12-22T11:33:19.155004+00:00",
        "meta_object_name": "TRANSPORTER-15 DG",
        "meta_object_id": "2025-276DG",
        "meta_epoch": "2025-12-22T03:39:52.783200",
        "meta_mean_motion": 15.18506881,
        "meta_eccentricity": 0.0002215,
        "meta_inclination": 97.4355,
        "meta_ra_of_asc_node": 67.7746,
        "meta_arg_of_pericenter": 77.1714,
        "meta_mean_anomaly": 282.9767,
        "meta_ephemeris_type": 0,
        "meta_classification_type": "U",
        "meta_norad_cat_id": 66768,
        "meta_element_set_no": 999,
        "meta_rev_at_epoch": 355,
        "meta_bstar": 0.00059684,
        "meta_mean_motion_dot": 0.00012257,
        "meta_mean_motion_ddot": 0,
        "tle_line1": "1 66768U 25276DG  25356.15269425  .00012257  00000+0  59684-3 0  9991",
        "tle_line2": "2 66768  97.4355  67.7746 0002215  77.1714 282.9767 15.18506881  3559"
      },
      "geometry": {
        "type": "Point",
        "coordinates": [
          68.59576766581058,
          -3.8067729350209945
        ]
      }
    },
    {
      "type": "Feature",
      "properties": {
        "norad_id": 66769,
        "name": "TRANSPORTER-15 DH",
        "group": "last-30-days",
        "lat": -8.47842328830956,
        "lon": 69.22974692375519,
        "alt_km": 515.6059461897494,
        "timestamp": "2025-12-22T11:33:19.155014+00:00",
        "meta_object_name": "TRANSPORTER-15 DH",
        "meta_object_id": "2025-276DH",
        "meta_epoch": "2025-12-22T03:41:05.142336",
        "meta_mean_motion": 15.18391464,
        "meta_eccentricity": 0.0002665,
        "meta_inclination": 97.442,
        "meta_ra_of_asc_node": 67.7906,
        "meta_arg_of_pericenter": 108.3723,
        "meta_mean_anomaly": 251.7801,
        "meta_ephemeris_type": 0,
        "meta_classification_type": "U",
        "meta_norad_cat_id": 66769,
        "meta_element_set_no": 999,
        "meta_rev_at_epoch": 355,
        "meta_bstar": 0.00028129,
        "meta_mean_motion_dot": 5.717e-05,
        "meta_mean_motion_ddot": 0,
        "tle_line1": "1 66769U 25276DH  25356.15353174  .00005717  00000+0  28129-3 0  9990",
        "tle_line2": "2 66769  97.4420  67.7906 0002665 108.3723 251.7801 15.18391464  3559"
      },
      "geometry": {
        "type": "Point",
        "coordinates": [
          69.22974692375519,
          -8.47842328830956
        ]
      }
    },
    {
      "type": "Feature",
      "properties": {
        "norad_id": 66770,
        "name": "TRANSPORTER-15 DJ",
        "group": "last-30-days",
        "lat": -6.619187913870859,
        "lon": 68.99382521093385,
        "alt_km": 516.0176248621283,
        "timestamp": "2025-12-22T11:33:19.155025+00:00",
        "meta_object_name": "TRANSPORTER-15 DJ",
        "meta_object_id": "2025-276DJ",
        "meta_epoch": "2025-12-22T03:40:35.463936",
        "meta_mean_motion": 15.1838867,
        "meta_eccentricity": 0.0003128,
        "meta_inclination": 97.4457,
        "meta_ra_of_asc_node": 67.8011,
        "meta_arg_of_pericenter": 125.7783,
        "meta_mean_anomaly": 234.3742,
        "meta_ephemeris_type": 0,
        "meta_classification_type": "U",
        "meta_norad_cat_id": 66770,
        "meta_element_set_no": 999,
        "meta_rev_at_epoch": 355,
        "meta_bstar": 0.000467,
        "meta_mean_motion_dot": 9.541e-05,
        "meta_mean_motion_ddot": 0,
        "tle_line1": "1 66770U 25276DJ  25356.15318824  .00009541  00000+0  46700-3 0  9999",
        "tle_line2": "2 66770  97.4457  67.8011 0003128 125.7783 234.3742 15.18388670  3559"
      },
      "geometry": {
        "type": "Point",
        "coordinates": [
          68.99382521093385,
          -6.619187913870859
        ]
      }
    },
    {
      "type": "Feature",
      "properties": {
        "norad_id": 66771,
        "name": "TRANSPORTER-15 DK",
        "group": "last-30-days",
        "lat": -4.440411423474277,
        "lon": 68.7041608623296,
        "alt_km": 515.1464540507632,
        "timestamp": "2025-12-22T11:33:19.155035+00:00",
        "meta_object_name": "TRANSPORTER-15 DK",
        "meta_object_id": "2025-276DK",
        "meta_epoch": "2025-12-22T03:40:01.905312",
        "meta_mean_motion": 15.1845389,
        "meta_eccentricity": 0.0002899,
        "meta_inclination": 97.4448,
        "meta_ra_of_asc_node": 67.7988,
        "meta_arg_of_pericenter": 116.9806,
        "meta_mean_anomaly": 243.1725,
        "meta_ephemeris_type": 0,
        "meta_classification_type": "U",
        "meta_norad_cat_id": 66771,
        "meta_element_set_no": 999,
        "meta_rev_at_epoch": 355,
        "meta_bstar": 0.00044335,
        "meta_mean_motion_dot": 9.07e-05,
        "meta_mean_motion_ddot": 0,
        "tle_line1": "1 66771U 25276DK  25356.15279983  .00009070  00000+0  44335-3 0  9991",
        "tle_line2": "2 66771  97.4448  67.7988 0002899 116.9806 243.1725 15.18453890  3550"
      },
      "geometry": {
        "type": "Point",
        "coordinates": [
          68.7041608623296,
          -4.440411423474277
        ]
      }
    },
    {
      "type": "Feature",
      "properties": {
        "norad_id": 66772,
        "name": "TRANSPORTER-15 DL",
        "group": "last-30-days",
        "lat": 7.832353512955052,
        "lon": 67.09397079387146,
        "alt_km": 512.024757888661,
        "timestamp": "2025-12-22T11:33:19.155045+00:00",
        "meta_object_name": "TRANSPORTER-15 DL",
        "meta_object_id": "2025-276DL",
        "meta_epoch": "2025-12-22T03:36:50.260608",
        "meta_mean_motion": 15.18670225,
        "meta_eccentricity": 0.0002892,
        "meta_inclination": 97.4437,
        "meta_ra_of_asc_node": 67.7987,
        "meta_arg_of_pericenter": 104.426,
        "meta_mean_anomaly": 255.7295,
        "meta_ephemeris_type": 0,
        "meta_classification_type": "U",
        "meta_norad_cat_id": 66772,
        "meta_element_set_no": 999,
        "meta_rev_at_epoch": 355,
        "meta_bstar": 0.00059598,
        "meta_mean_motion_dot": 0.00012298,
        "meta_mean_motion_ddot": 0,
        "tle_line1": "1 66772U 25276DL  25356.15058172  .00012298  00000+0  59598-3 0  9990",
        "tle_line2": "2 66772  97.4437  67.7987 0002892 104.4260 255.7295 15.18670225  3551"
      },
      "geometry": {
        "type": "Point",
        "coordinates": [
          67.09397079387146,
          7.832353512955052
        ]
      }
    },
    {
      "type": "Feature",
      "properties": {
        "norad_id": 66773,
        "name": "TRANSPORTER-15 DM",
        "group": "last-30-days",
        "lat": 1.6555627176502565,
        "lon": 67.90470223682726,
        "alt_km": 513.5551932035669,
        "timestamp": "2025-12-22T11:33:19.155055+00:00",
        "meta_object_name": "TRANSPORTER-15 DM",
        "meta_object_id": "2025-276DM",
        "meta_epoch": "2025-12-22T03:38:25.893312",
        "meta_mean_motion": 15.18518714,
        "meta_eccentricity": 0.000297,
        "meta_inclination": 97.4435,
        "meta_ra_of_asc_node": 67.7966,
        "meta_arg_of_pericenter": 103.9903,
        "meta_mean_anomaly": 256.1661,
        "meta_ephemeris_type": 0,
        "meta_classification_type": "U",
        "meta_norad_cat_id": 66773,
        "meta_element_set_no": 999,
        "meta_rev_at_epoch": 355,
        "meta_bstar": 0.00053247,
        "meta_mean_motion_dot": 0.0001093,
        "meta_mean_motion_ddot": 0,
        "tle_line1": "1 66773U 25276DM  25356.15168858  .00010930  00000+0  53247-3 0  9990",
        "tle_line2": "2 66773  97.4435  67.7966 0002970 103.9903 256.1661 15.18518714  3558"
      },
      "geometry": {
        "type": "Point",
        "coordinates": [
          67.90470223682726,
          1.6555627176502565
        ]
      }
    }
  ]
}